ATLAS CENTAUR 2         
1 00694U 63047A   25365.60245330  .00003312  00000+0  39233-3 0  9994
2 00694  30.3537 216.0873 0548643 200.3568 157.4343 14.11845900121995
THOR AGENA D R/B        
1 00733U 64002A   25365.56195088  .00000472  00000+0  18543-3 0  9994
2 00733  99.1218  10.1985 0033873  96.6526 263.8514 14.33972409228538
SL-3 R/B                
1 00877U 64053B   25365.59818384  .00000562  00000+0  13343-3 0  9996
2 00877  65.0758 170.8532 0075570 314.0465  45.4426 14.61292276256848
SL-8 R/B                
1 02802U 67045B   25365.61687022  .00000813  00000+0  23250-3 0  9993
2 02802  74.0117 115.2146 0063347 139.7901 220.7969 14.45559755 79187
SL-8 R/B                
1 03230U 68040B   25365.61564183  .00006101  00000+0  45661-3 0  9993
2 03230  74.0330  92.7322 0026324 291.4463  68.3918 15.02683106 79786
OAO 2                   
1 03597U 68110A   25365.20830247  .00000518  00000+0  14484-3 0  9994
2 03597  34.9941 287.5589 0005389   1.3851 358.6854 14.47257413  9177
ISIS 1                  
1 03669U 69009A   25365.38263839  .00000571  00000+0  40912-3 0  9992
2 03669  88.4500 162.7574 1707281 227.0248 117.4705 11.30366262340815
SERT 2                  
1 04327U 70009A   25365.44696888  .00000050  00000+0  12427-3 0  9999
2 04327  99.2676 307.3056 0004787 349.5545 119.4389 13.58720728770622
SL-3 R/B                
1 05118U 71028B   25365.59420369  .00049113  00000+0  70412-3 0  9996
2 05118  81.2375 135.7837 0018691 173.1637 186.9872 15.55737463978067
ASTEX 1                 
1 05560U 71089A   25365.39826935  .00001116  00000+0  28429-3 0  9993
2 05560  92.7152 129.6574 0014097 321.8052  38.2154 14.50669287852400
SL-8 R/B                
1 05730U 71119B   25365.28775149  .00014138  00000+0  73272-3 0  9998
2 05730  73.8894 303.4143 0557750 283.9553  70.0199 14.36204248645665
OAO 3 (COPERNICUS)      
1 06153U 72065A   25365.36098507  .00000826  00000+0  17406-3 0  9990
2 06153  35.0073 326.5907 0007002 317.0501 173.9532 14.59926504836207
