CCSDS_OMM_VERS = 2.0
CREATION_DATE  = 
ORIGINATOR     = 

OBJECT_NAME    = ATLAS CENTAUR 2
OBJECT_ID      = 1963-047A
CENTER_NAME    = EARTH
REF_FRAME      = TEME
TIME_SYSTEM    = UTC
MEAN_ELEMENT_THEORY = SGP/SGP4

EPOCH          = 2025-12-31T14:27:31.965120
MEAN_MOTION    = 14.11845900
ECCENTRICITY   = .0548643
INCLINATION    = 30.3537
RA_OF_ASC_NODE = 216.0873
ARG_OF_PERICENTER = 200.3568
MEAN_ANOMALY   = 157.4343

EPHEMERIS_TYPE = 0
CLASSIFICATION_TYPE = U
NORAD_CAT_ID   = 694
ELEMENT_SET_NO = 999
REV_AT_EPOCH   = 12199
BSTAR          = .39233178E-3
MEAN_MOTION_DOT = .3312E-4
MEAN_MOTION_DDOT = 0

CCSDS_OMM_VERS = 2.0
CREATION_DATE  = 
ORIGINATOR     = 

OBJECT_NAME    = THOR AGENA D R/B
OBJECT_ID      = 1964-002A
CENTER_NAME    = EARTH
REF_FRAME      = TEME
TIME_SYSTEM    = UTC
MEAN_ELEMENT_THEORY = SGP/SGP4

EPOCH          = 2025-12-31T13:29:12.556032
MEAN_MOTION    = 14.33972409
ECCENTRICITY   = .00338737
INCLINATION    = 99.1218
RA_OF_ASC_NODE = 10.1985
ARG_OF_PERICENTER = 96.6526
MEAN_ANOMALY   = 263.8514

EPHEMERIS_TYPE = 0
CLASSIFICATION_TYPE = U
NORAD_CAT_ID   = 733
ELEMENT_SET_NO = 999
REV_AT_EPOCH   = 22853
BSTAR          = .1854328E-3
MEAN_MOTION_DOT = .472E-5
MEAN_MOTION_DDOT = 0

CCSDS_OMM_VERS = 2.0
CREATION_DATE  = 
ORIGINATOR     = 

OBJECT_NAME    = SL-3 R/B
OBJECT_ID      = 1964-053B
CENTER_NAME    = EARTH
REF_FRAME      = TEME
TIME_SYSTEM    = UTC
MEAN_ELEMENT_THEORY = SGP/SGP4

EPOCH          = 2025-12-31T14:21:23.083776
MEAN_MOTION    = 14.61292276
ECCENTRICITY   = .00755705
INCLINATION    = 65.0758
RA_OF_ASC_NODE = 170.8532
ARG_OF_PERICENTER = 314.0465
MEAN_ANOMALY   = 45.4426

EPHEMERIS_TYPE = 0
CLASSIFICATION_TYPE = U
NORAD_CAT_ID   = 877
ELEMENT_SET_NO = 999
REV_AT_EPOCH   = 25684
BSTAR          = .1334342E-3
MEAN_MOTION_DOT = .562E-5
MEAN_MOTION_DDOT = 0

CCSDS_OMM_VERS = 2.0
CREATION_DATE  = 
ORIGINATOR     = 

OBJECT_NAME    = SL-8 R/B
OBJECT_ID      = 1967-045B
CENTER_NAME    = EARTH
REF_FRAME      = TEME
TIME_SYSTEM    = UTC
MEAN_ELEMENT_THEORY = SGP/SGP4

EPOCH          = 2025-12-31T14:48:17.587008
MEAN_MOTION    = 14.45559755
ECCENTRICITY   = .00633479
INCLINATION    = 74.0117
RA_OF_ASC_NODE = 115.2146
ARG_OF_PERICENTER = 139.7901
MEAN_ANOMALY   = 220.7969

EPHEMERIS_TYPE = 0
CLASSIFICATION_TYPE = U
NORAD_CAT_ID   = 2802
ELEMENT_SET_NO = 999
REV_AT_EPOCH   = 7918
BSTAR          = .23250079E-3
MEAN_MOTION_DOT = .813E-5
MEAN_MOTION_DDOT = 0

CCSDS_OMM_VERS = 2.0
CREATION_DATE  = 
ORIGINATOR     = 

OBJECT_NAME    = SL-8 R/B
OBJECT_ID      = 1968-040B
CENTER_NAME    = EARTH
REF_FRAME      = TEME
TIME_SYSTEM    = UTC
MEAN_ELEMENT_THEORY = SGP/SGP4

EPOCH          = 2025-12-31T14:46:31.454112
MEAN_MOTION    = 15.02683106
ECCENTRICITY   = .00263241
INCLINATION    = 74.0330
RA_OF_ASC_NODE = 92.7322
ARG_OF_PERICENTER = 291.4463
MEAN_ANOMALY   = 68.3918

EPHEMERIS_TYPE = 0
CLASSIFICATION_TYPE = U
NORAD_CAT_ID   = 3230
ELEMENT_SET_NO = 999
REV_AT_EPOCH   = 7978
BSTAR          = .45660839E-3
MEAN_MOTION_DOT = .6101E-4
MEAN_MOTION_DDOT = 0

CCSDS_OMM_VERS = 2.0
CREATION_DATE  = 
ORIGINATOR     = 

OBJECT_NAME    = OAO 2
OBJECT_ID      = 1968-110A
CENTER_NAME    = EARTH
REF_FRAME      = TEME
TIME_SYSTEM    = UTC
MEAN_ELEMENT_THEORY = SGP/SGP4

EPOCH          = 2025-12-31T04:59:57.333408
MEAN_MOTION    = 14.47257413
ECCENTRICITY   = .0005389
INCLINATION    = 34.9941
RA_OF_ASC_NODE = 287.5589
ARG_OF_PERICENTER = 1.3851
MEAN_ANOMALY   = 358.6854

EPHEMERIS_TYPE = 0
CLASSIFICATION_TYPE = U
NORAD_CAT_ID   = 3597
ELEMENT_SET_NO = 999
REV_AT_EPOCH   = 917
BSTAR          = .14484E-3
MEAN_MOTION_DOT = .518E-5
MEAN_MOTION_DDOT = 0

CCSDS_OMM_VERS = 2.0
CREATION_DATE  = 
ORIGINATOR     = 

OBJECT_NAME    = ISIS 1
OBJECT_ID      = 1969-009A
CENTER_NAME    = EARTH
REF_FRAME      = TEME
TIME_SYSTEM    = UTC
MEAN_ELEMENT_THEORY = SGP/SGP4

EPOCH          = 2025-12-31T09:10:59.956896
MEAN_MOTION    = 11.30366262
ECCENTRICITY   = .17072817
INCLINATION    = 88.4500
RA_OF_ASC_NODE = 162.7574
ARG_OF_PERICENTER = 227.0248
MEAN_ANOMALY   = 117.4705

EPHEMERIS_TYPE = 0
CLASSIFICATION_TYPE = U
NORAD_CAT_ID   = 3669
ELEMENT_SET_NO = 999
REV_AT_EPOCH   = 34081
BSTAR          = .4091164E-3
MEAN_MOTION_DOT = .571E-5
MEAN_MOTION_DDOT = 0

CCSDS_OMM_VERS = 2.0
CREATION_DATE  = 
ORIGINATOR     = 

OBJECT_NAME    = SERT 2
OBJECT_ID      = 1970-009A
CENTER_NAME    = EARTH
REF_FRAME      = TEME
TIME_SYSTEM    = UTC
MEAN_ELEMENT_THEORY = SGP/SGP4

EPOCH          = 2025-12-31T10:43:38.111232
MEAN_MOTION    = 13.58720728
ECCENTRICITY   = .00047872
INCLINATION    = 99.2676
RA_OF_ASC_NODE = 307.3056
ARG_OF_PERICENTER = 349.5545
MEAN_ANOMALY   = 119.4389

EPHEMERIS_TYPE = 0
CLASSIFICATION_TYPE = U
NORAD_CAT_ID   = 4327
ELEMENT_SET_NO = 999
REV_AT_EPOCH   = 77062
BSTAR          = .12427437E-3
MEAN_MOTION_DOT = .5E-6
MEAN_MOTION_DDOT = 0

CCSDS_OMM_VERS = 2.0
CREATION_DATE  = 
ORIGINATOR     = 

OBJECT_NAME    = SL-3 R/B
OBJECT_ID      = 1971-028B
CENTER_NAME    = EARTH
REF_FRAME      = TEME
TIME_SYSTEM    = UTC
MEAN_ELEMENT_THEORY = SGP/SGP4

EPOCH          = 2025-12-31T14:15:39.198816
MEAN_MOTION    = 15.55737463
ECCENTRICITY   = .00186911
INCLINATION    = 81.2375
RA_OF_ASC_NODE = 135.7837
ARG_OF_PERICENTER = 173.1637
MEAN_ANOMALY   = 186.9872

EPHEMERIS_TYPE = 0
CLASSIFICATION_TYPE = U
NORAD_CAT_ID   = 5118
ELEMENT_SET_NO = 999
REV_AT_EPOCH   = 97806
BSTAR          = .70411613E-3
MEAN_MOTION_DOT = .49113E-3
MEAN_MOTION_DDOT = 0

CCSDS_OMM_VERS = 2.0
CREATION_DATE  = 
ORIGINATOR     = 

OBJECT_NAME    = ASTEX 1
OBJECT_ID      = 1971-089A
CENTER_NAME    = EARTH
REF_FRAME      = TEME
TIME_SYSTEM    = UTC
MEAN_ELEMENT_THEORY = SGP/SGP4

EPOCH          = 2025-12-31T09:33:30.471840
MEAN_MOTION    = 14.50669287
ECCENTRICITY   = .00140971
INCLINATION    = 92.7152
RA_OF_ASC_NODE = 129.6574
ARG_OF_PERICENTER = 321.8052
MEAN_ANOMALY   = 38.2154

EPHEMERIS_TYPE = 0
CLASSIFICATION_TYPE = U
NORAD_CAT_ID   = 5560
ELEMENT_SET_NO = 999
REV_AT_EPOCH   = 85240
BSTAR          = .28429256E-3
MEAN_MOTION_DOT = .1116E-4
MEAN_MOTION_DDOT = 0

CCSDS_OMM_VERS = 2.0
CREATION_DATE  = 
ORIGINATOR     = 

OBJECT_NAME    = SL-8 R/B
OBJECT_ID      = 1971-119B
CENTER_NAME    = EARTH
REF_FRAME      = TEME
TIME_SYSTEM    = UTC
MEAN_ELEMENT_THEORY = SGP/SGP4

EPOCH          = 2025-12-31T06:54:21.728736
MEAN_MOTION    = 14.36204248
ECCENTRICITY   = .055775
INCLINATION    = 73.8894
RA_OF_ASC_NODE = 303.4143
ARG_OF_PERICENTER = 283.9553
MEAN_ANOMALY   = 70.0199

EPHEMERIS_TYPE = 0
CLASSIFICATION_TYPE = U
NORAD_CAT_ID   = 5730
ELEMENT_SET_NO = 999
REV_AT_EPOCH   = 64566
BSTAR          = .73272E-3
MEAN_MOTION_DOT = .14138E-3
MEAN_MOTION_DDOT = 0

CCSDS_OMM_VERS = 2.0
CREATION_DATE  = 
ORIGINATOR     = 

OBJECT_NAME    = OAO 3 (COPERNICUS)
OBJECT_ID      = 1972-065A
CENTER_NAME    = EARTH
REF_FRAME      = TEME
TIME_SYSTEM    = UTC
MEAN_ELEMENT_THEORY = SGP/SGP4

EPOCH          = 2025-12-31T08:39:49.110048
MEAN_MOTION    = 14.59926504
ECCENTRICITY   = .0007002
INCLINATION    = 35.0073
RA_OF_ASC_NODE = 326.5907
ARG_OF_PERICENTER = 317.0501
MEAN_ANOMALY   = 173.9532

EPHEMERIS_TYPE = 0
CLASSIFICATION_TYPE = U
NORAD_CAT_ID   = 6153
ELEMENT_SET_NO = 999
REV_AT_EPOCH   = 83620
BSTAR          = .17406357E-3
MEAN_MOTION_DOT = .826E-5
MEAN_MOTION_DDOT = 0

